{"type": "FeatureCollection", "features": [ {"type": "Feature", "properties": {"norad_id": 34077, "name": "IRIDIUM 33 DEB", "group": "iridium-33-debris", "lat": -10.168254860416358, "lon": 46.12500948113989, "alt_km": 675.3204291849434, "timestamp": "2025-12-23T11:34:48.545850+00:00", "meta": {"OBJECT_NAME": "IRIDIUM 33 DEB", "OBJECT_ID": "1997-051CL", "EPOCH": "2025-12-22T09:27:37.329984", "MEAN_MOTION": 14.64940807, "ECCENTRICITY": 0.00090827, "INCLINATION": 86.3849, "RA_OF_ASC_NODE": 47.2542, "ARG_OF_PERICENTER": 8.0354, "MEAN_ANOMALY": 6.0314, "EPHEMERIS_TYPE": 0, "CLASSIFICATION_TYPE": "U", "NORAD_CAT_ID": 34077, "ELEMENT_SET_NO": 999, "REV_AT_EPOCH": 88474, "BSTAR": 0.00142765, "MEAN_MOTION_DOT": 7.665e-05, "MEAN_MOTION_DDOT": 0}, "tle": {"line1": "1 34077U 97051CL  25356.39418206  .00007665  00000+0  14276-2 0  9992", "line2": "2 34077  86.3849  47.2542 0009082   8.0354   6.0314 14.64940807884742"}}, "geometry": {"type": "Point", "coordinates": [46.12500948113989, -10.168254860416358]}}, {"type": "Feature", "properties": {"norad_id": 34079, "name": "IRIDIUM 33 DEB", "group": "iridium-33-debris", "lat": -13.659743904780449, "lon": 2.893202665406659, "alt_km": 619.1053683655082, "timestamp": "2025-12-23T11:34:48.545859+00:00", "meta": {"OBJECT_NAME": "IRIDIUM 33 DEB", "OBJECT_ID": "1997-051CN", "EPOCH": "2025-12-22T08:25:01.081344", "MEAN_MOTION": 14.83759733, "ECCENTRICITY": 0.0004456, "INCLINATION": 86.3771, "RA_OF_ASC_NODE": 4.2903, "ARG_OF_PERICENTER": 333.0495, "MEAN_ANOMALY": 91.7488, "EPHEMERIS_TYPE": 0, "CLASSIFICATION_TYPE": "U", "NORAD_CAT_ID": 34079, "ELEMENT_SET_NO": 999, "REV_AT_EPOCH": 89120, "BSTAR": 0.0018756, "MEAN_MOTION_DOT": 0.00015565, "MEAN_MOTION_DDOT": 0}, "tle": {"line1": "1 34079U 97051CN  25356.35070696  .00015565  00000+0  18756-2 0  9992", "line2": "2 34079  86.3771   4.2903 0004456 333.0495  91.7488 14.83759733891208"}}, "geometry": {"type": "Point", "coordinates": [2.893202665406659, -13.659743904780449]}}, {"type": "Feature", "properties": {"norad_id": 34088, "name": "IRIDIUM 33 DEB", "group": "iridium-33-debris", "lat": 24.829109433390027, "lon": 27.4624369923554, "alt_km": 593.8339698302361, "timestamp": "2025-12-23T11:34:48.545869+00:00", "meta": {"OBJECT_NAME": "IRIDIUM 33 DEB", "OBJECT_ID": "1997-051CX", "EPOCH": "2025-12-23T01:54:32.263776", "MEAN_MOTION": 14.9182131, "ECCENTRICITY": 0.0006827, "INCLINATION": 86.3834, "RA_OF_ASC_NODE": 25.9708, "ARG_OF_PERICENTER": 144.041, "MEAN_ANOMALY": 238.2905, "EPHEMERIS_TYPE": 0, "CLASSIFICATION_TYPE": "U", "NORAD_CAT_ID": 34088, "ELEMENT_SET_NO": 999, "REV_AT_EPOCH": 88896, "BSTAR": 0.0024729, "MEAN_MOTION_DOT": 0.00025042, "MEAN_MOTION_DDOT": 0}, "tle": {"line1": "1 34088U 97051CX  25357.07954009  .00025042  00000+0  24729-2 0  9999", "line2": "2 34088  86.3834  25.9708 0006827 144.0410 238.2905 14.91821310888963"}}, "geometry": {"type": "Point", "coordinates": [27.4624369923554, 24.829109433390027]}}, {"type": "Feature", "properties": {"norad_id": 34091, "name": "IRIDIUM 33 DEB", "group": "iridium-33-debris", "lat": -26.87408850147192, "lon": -116.23010203558388, "alt_km": 611.0126567016177, "timestamp": "2025-12-23T11:34:48.545878+00:00", "meta": {"OBJECT_NAME": "IRIDIUM 33 DEB", "OBJECT_ID": "1997-051DA", "EPOCH": "2025-12-22T15:12:28.903968", "MEAN_MOTION": 14.82502954, "ECCENTRICITY": 0.00341969, "INCLINATION": 86.3411, "RA_OF_ASC_NODE": 62.3008, "ARG_OF_PERICENTER": 257.7547, "MEAN_ANOMALY": 101.9845, "EPHEMERIS_TYPE": 0, "CLASSIFICATION_TYPE": "U", "NORAD_CAT_ID": 34091, "ELEMENT_SET_NO": 999, "REV_AT_EPOCH": 88013, "BSTAR": 0.0048076531, "MEAN_MOTION_DOT": 0.00039186, "MEAN_MOTION_DDOT": 0}, "tle": {"line1": "1 34091U 97051DA  25356.63366787  .00039186  00000+0  48077-2 0  9990", "line2": "2 34091  86.3411  62.3008 0034196 257.7547 101.9845 14.82502954880139"}}, "geometry": {"type": "Point", "coordinates": [-116.23010203558388, -26.87408850147192]}}, {"type": "Feature", "properties": {"norad_id": 34097, "name": "IRIDIUM 33 DEB", "group": "iridium-33-debris", "lat": 66.04619970984464, "lon": 5.269493133127655, "alt_km": 778.1893124100579, "timestamp": "2025-12-23T11:34:48.545889+00:00", "meta": {"OBJECT_NAME": "IRIDIUM 33 DEB", "OBJECT_ID": "1997-051DG", "EPOCH": "2025-12-22T10:10:07.648896", "MEAN_MOTION": 14.34850685, "ECCENTRICITY": 0.00816282, "INCLINATION": 86.1999, "RA_OF_ASC_NODE": 357.1326, "ARG_OF_PERICENTER": 330.4879, "MEAN_ANOMALY": 29.172, "EPHEMERIS_TYPE": 0, "CLASSIFICATION_TYPE": "U", "NORAD_CAT_ID": 34097, "ELEMENT_SET_NO": 999, "REV_AT_EPOCH": 87258, "BSTAR": 0.0014468202, "MEAN_MOTION_DOT": 4.282e-05, "MEAN_MOTION_DDOT": 0}, "tle": {"line1": "1 34097U 97051DG  25356.42369964  .00004282  00000+0  14468-2 0  9999", "line2": "2 34097  86.1999 357.1326 0081628 330.4879  29.1720 14.34850685872588"}}, "geometry": {"type": "Point", "coordinates": [5.269493133127655, 66.04619970984464]}}, {"type": "Feature", "properties": {"norad_id": 34145, "name": "IRIDIUM 33 DEB", "group": "iridium-33-debris", "lat": -83.20320389241022, "lon": -178.49127203127054, "alt_km": 794.1549776611673, "timestamp": "2025-12-23T11:34:48.545898+00:00", "meta": {"OBJECT_NAME": "IRIDIUM 33 DEB", "OBJECT_ID": "1997-051DY", "EPOCH": "2025-12-22T16:02:40.191072", "MEAN_MOTION": 14.42355185, "ECCENTRICITY": 0.0055643, "INCLINATION": 86.2124, "RA_OF_ASC_NODE": 328.1041, "ARG_OF_PERICENTER": 62.2939, "MEAN_ANOMALY": 298.3891, "EPHEMERIS_TYPE": 0, "CLASSIFICATION_TYPE": "U", "NORAD_CAT_ID": 34145, "ELEMENT_SET_NO": 999, "REV_AT_EPOCH": 87781, "BSTAR": 0.0011008747, "MEAN_MOTION_DOT": 3.725e-05, "MEAN_MOTION_DDOT": 0}, "tle": {"line1": "1 34145U 97051DY  25356.66852073  .00003725  00000+0  11009-2 0  9996", "line2": "2 34145  86.2124 328.1041 0055643  62.2939 298.3891 14.42355185877814"}}, "geometry": {"type": "Point", "coordinates": [-178.49127203127054, -83.20320389241022]}}, {"type": "Feature", "properties": {"norad_id": 34146, "name": "IRIDIUM 33 DEB", "group": "iridium-33-debris", "lat": 16.76445413936634, "lon": 163.93227369440223, "alt_km": 711.6392970214665, "timestamp": "2025-12-23T11:34:48.545907+00:00", "meta": {"OBJECT_NAME": "IRIDIUM 33 DEB", "OBJECT_ID": "1997-051DZ", "EPOCH": "2025-12-22T12:12:34.513056", "MEAN_MOTION": 14.49108605, "ECCENTRICITY": 0.0026525, "INCLINATION": 86.2838, "RA_OF_ASC_NODE": 345.4841, "ARG_OF_PERICENTER": 187.7667, "MEAN_ANOMALY": 298.6983, "EPHEMERIS_TYPE": 0, "CLASSIFICATION_TYPE": "U", "NORAD_CAT_ID": 34146, "ELEMENT_SET_NO": 999, "REV_AT_EPOCH": 88248, "BSTAR": 0.00085220356, "MEAN_MOTION_DOT": 3.272e-05, "MEAN_MOTION_DDOT": 0}, "tle": {"line1": "1 34146U 97051DZ  25356.50873279  .00003272  00000+0  85220-3 0  9995", "line2": "2 34146  86.2838 345.4841 0026525 187.7667 298.6983 14.49108605882489"}}, "geometry": {"type": "Point", "coordinates": [163.93227369440223, 16.76445413936634]}}, {"type": "Feature", "properties": {"norad_id": 34159, "name": "IRIDIUM 33 DEB", "group": "iridium-33-debris", "lat": -9.42015368098794, "lon": -135.73278053464054, "alt_km": 758.4175237086101, "timestamp": "2025-12-23T11:34:48.545916+00:00", "meta": {"OBJECT_NAME": "IRIDIUM 33 DEB", "OBJECT_ID": "1997-051EN", "EPOCH": "2025-12-23T02:21:10.927296", "MEAN_MOTION": 14.38517656, "ECCENTRICITY": 0.0026113, "INCLINATION": 86.3497, "RA_OF_ASC_NODE": 43.8243, "ARG_OF_PERICENTER": 251.2341, "MEAN_ANOMALY": 108.6024, "EPHEMERIS_TYPE": 0, "CLASSIFICATION_TYPE": "U", "NORAD_CAT_ID": 34159, "ELEMENT_SET_NO": 999, "REV_AT_EPOCH": 88108, "BSTAR": 0.00035644, "MEAN_MOTION_DOT": 1.112e-05, "MEAN_MOTION_DDOT": 0}, "tle": {"line1": "1 34159U 97051EN  25357.09804314  .00001112  00000+0  35644-3 0  9994", "line2": "2 34159  86.3497  43.8243 0026113 251.2341 108.6024 14.38517656881088"}}, "geometry": {"type": "Point", "coordinates": [-135.73278053464054, -9.42015368098794]}}, {"type": "Feature", "properties": {"norad_id": 34350, "name": "IRIDIUM 33 DEB", "group": "iridium-33-debris", "lat": 55.134067899187684, "lon": 172.85560113911785, "alt_km": 720.0841620493838, "timestamp": "2025-12-23T11:34:48.545926+00:00", "meta": {"OBJECT_NAME": "IRIDIUM 33 DEB", "OBJECT_ID": "1997-051ES", "EPOCH": "2025-12-23T01:18:23.718816", "MEAN_MOTION": 14.45409977, "ECCENTRICITY": 0.0023455, "INCLINATION": 86.3272, "RA_OF_ASC_NODE": 358.331, "ARG_OF_PERICENTER": 103.6059, "MEAN_ANOMALY": 314.9191, "EPHEMERIS_TYPE": 0, "CLASSIFICATION_TYPE": "U", "NORAD_CAT_ID": 34350, "ELEMENT_SET_NO": 999, "REV_AT_EPOCH": 88442, "BSTAR": 0.00031237, "MEAN_MOTION_DOT": 1.122e-05, "MEAN_MOTION_DDOT": 0}, "tle": {"line1": "1 34350U 97051ES  25357.05444119  .00001122  00000+0  31237-3 0  9991", "line2": "2 34350  86.3272 358.3310 0023455 103.6059 314.9191 14.45409977884425"}}, "geometry": {"type": "Point", "coordinates": [172.85560113911785, 55.134067899187684]}}, {"type": "Feature", "properties": {"norad_id": 34366, "name": "IRIDIUM 33 DEB", "group": "iridium-33-debris", "lat": 67.96729607194872, "lon": 53.66916558820061, "alt_km": 692.7107762575979, "timestamp": "2025-12-23T11:34:48.545936+00:00", "meta": {"OBJECT_NAME": "IRIDIUM 33 DEB", "OBJECT_ID": "1997-051FJ", "EPOCH": "2025-12-22T10:47:10.372704", "MEAN_MOTION": 14.54128755, "ECCENTRICITY": 0.00230356, "INCLINATION": 86.3686, "RA_OF_ASC_NODE": 45.09, "ARG_OF_PERICENTER": 109.4758, "MEAN_ANOMALY": 314.4093, "EPHEMERIS_TYPE": 0, "CLASSIFICATION_TYPE": "U", "NORAD_CAT_ID": 34366, "ELEMENT_SET_NO": 999, "REV_AT_EPOCH": 88323, "BSTAR": 0.000894432, "MEAN_MOTION_DOT": 3.813e-05, "MEAN_MOTION_DDOT": 0}, "tle": {"line1": "1 34366U 97051FJ  25356.44942561  .00003813  00000+0  89443-3 0  9995", "line2": "2 34366  86.3686  45.0900 0023035 109.4758 314.4093 14.54128755883236"}}, "geometry": {"type": "Point", "coordinates": [53.66916558820061, 67.96729607194872]}}]}